ONEWEB-0275             
1 48993U 21060AC  26192.01647122  .00000066  00000+0  13822-3 0  9995
2 48993  87.9085 224.0427 0002007  96.8120 263.3239 13.16595909242697
ONEWEB-0276             
1 48994U 21060AD  26191.06176774  .00000058  00000+0  11804-3 0  9999
2 48994  87.9078 224.2318 0001925  94.5446 265.5905 13.16593596242587
ONEWEB-0277             
1 48995U 21060AE  26192.06240189  .00000062  00000+0  12849-3 0  9998
2 48995  87.9071 224.0405 0002120  99.8373 260.2998 13.16594725242704
ONEWEB-0278             
1 48996U 21060AF  26191.06493588  .00000023  00000+0  26632-4 0  9994
2 48996  87.9078 224.2302 0002257  90.4499 269.6891 13.16593092242708
ONEWEB-0279             
1 48997U 21060AG  26192.06081199  .00000212  00000+0  52010-3 0  9995
2 48997  87.9070 224.0302 0001728  99.2573 260.8754 13.16592763242762
ONEWEB-0280             
1 48998U 21060AH  26192.07584985  .00000134  00000+0  31605-3 0  9998
2 48998  87.9080 224.0309 0002433  96.7860 263.3548 13.16594487242704
ONEWEB-0281             
1 48999U 21060AJ  26191.32142135  .00000133  00000+0  31337-3 0  9994
2 48999  87.9084 224.1771 0002093  93.0920 267.0450 13.16593640242671
ONEWEB-0282             
1 49000U 21060AK  26192.03547747 -.00000027  00000+0 -10384-3 0  9998
2 49000  87.9063 224.0429 0002260  97.2963 262.8425 13.16594666242742
ONEWEB-0283             
1 49001U 21060AL  26192.02438838  .00000021  00000+0  20238-4 0  9990
2 49001  87.9075 224.0434 0002010  99.3667 260.7691 13.16593295242759
ONEWEB-0284             
1 49002U 21060AM  26192.01806610  .00000057  00000+0  11558-3 0  9990
2 49002  87.9080 224.0396 0002421  92.8622 267.2786 13.16594075242730
ONEWEB-0285             
1 49075U 21075A   26191.38884534 -.00000267  00000+0 -77750-3 0  9997
2 49075  87.8964 346.0491 0001772  88.6093 271.5239 13.12444466238251
ONEWEB-0286             
1 49076U 21075B   26191.37091528 -.00000260  00000+0 -75711-3 0  9998
2 49076  87.8947 346.0673 0001770  87.3246 272.8085 13.12441589237603
ONEWEB-0287             
1 49077U 21075C   26190.71968816  .00000076  00000+0  16182-3 0  9999
2 49077  87.9136   1.3828 0002003  79.5145 280.6212 13.17647814236599
ONEWEB-0288             
1 49078U 21075D   26190.66120114  .00000353  00000+0  94517-3 0  9991
2 49078  87.8959 346.1865 0001979  90.4444 269.6912 13.12441173238139
ONEWEB-0289             
1 49079U 21075E   26191.44192826  .00000063  00000+0  12860-3 0  9997
2 49079  87.9140   1.2570 0001958  97.6163 262.5191 13.17610101237267
ONEWEB-0290             
1 49080U 21075F   26191.41493483  .00000051  00000+0  97201-4 0  9999
2 49080  87.9138   1.2346 0002282  98.8237 261.3153 13.17650274236677
ONEWEB-0291             
1 49081U 21075G   26191.39975215  .00000086  00000+0  18960-3 0  9997
2 49081  87.9138   1.2442 0002154  85.5647 274.5731 13.17646726236665
ONEWEB-0293             
1 49082U 21075H   26191.42505426  .00000053  00000+0  10244-3 0  9996
2 49082  87.9132   1.2417 0001986  92.6934 267.4425 13.17650176236690
ONEWEB-0294             
1 49083U 21075J   26190.66798051  .00000246  00000+0  64953-3 0  9990
2 49083  87.8963 346.1890 0002150  99.4647 260.6725 13.12442268237525
ONEWEB-0295             
1 49084U 21075K   26191.42421704  .00000026  00000+0  33968-4 0  9993
2 49084  87.9137   1.2458 0002059  84.2425 275.8941 13.17649743236656
ONEWEB-0296             
1 49085U 21075L   26190.72389160  .00000473  00000+0  12781-2 0  9999
2 49085  87.8967 346.1863 0002111  88.0069 272.1302 13.12443740237536
ONEWEB-0297             
1 49086U 21075M   26191.44051299 -.00000029  00000+0 -11673-3 0  9998
2 49086  87.8952 346.0512 0001868  92.1527 267.9816 13.12441333238230
ONEWEB-0298             
1 49087U 21075N   26191.42858873  .00000067  00000+0  13977-3 0  9999
2 49087  87.9137   1.2435 0001747  88.8317 271.3015 13.17648471236680
ONEWEB-0299             
1 49088U 21075P   26190.74669102  .00000017  00000+0  11671-4 0  9994
2 49088  87.9146   1.3614 0001894  86.5254 273.6095 13.17647788236570
ONEWEB-0300             
1 49089U 21075Q   26191.43289213  .00000253  00000+0  66888-3 0  9994
2 49089  87.8964 346.0351 0001475  90.6395 269.4903 13.12441606238256
ONEWEB-0301             
1 49090U 21075R   26191.41679872  .00000482  00000+0  13043-2 0  9996
2 49090  87.8962 346.0355 0001490  98.0696 262.0602 13.12443190237617
ONEWEB-0302             
1 49091U 21075S   26191.40324500  .00000127  00000+0  31883-3 0  9990
2 49091  87.8959 346.0510 0002181  95.4531 264.6847 13.12442330237595
ONEWEB-0304             
1 49092U 21075T   26191.40480210  .00000050  00000+0  94755-4 0  9995
2 49092  87.9141   1.2510 0001979  87.0895 273.0463 13.17647915236637
ONEWEB-0305             
1 49093U 21075U   26190.71462740  .00000031  00000+0  46542-4 0  9997
2 49093  87.9146   1.3743 0002018  80.3165 279.8195 13.17647664236573
ONEWEB-0308             
1 49094U 21075V   26191.39646108 -.00000053  00000+0 -18279-3 0  9996
2 49094  87.8960 346.0451 0001842  97.3959 262.7379 13.12443574237604
